IRIDIUM 135             
1 43070U 17083A   26177.43077733  .00000015  00000+0 -18408-5 0  9992
2 43070  86.3970 318.1504 0002067  92.6258 267.5174 14.34217660445478
IRIDIUM 138             
1 43071U 17083B   26177.45614785  .00000062  00000+0  15068-4 0  9998
2 43071  86.3986 317.8366 0002226  87.1726 272.9724 14.34217950445466
IRIDIUM 116             
1 43072U 17083C   26177.63374009  .00000136  00000+0  41652-4 0  9991
2 43072  86.3972 318.0512 0002162 101.7438 258.4001 14.34218111445524
IRIDIUM 130             
1 43073U 17083D   26177.46248868  .00000065  00000+0  16013-4 0  9990
2 43073  86.3978 318.3990 0001991  96.4606 263.6817 14.34216992445449
IRIDIUM 151             
1 43074U 17083E   26177.43712013  .00000030  00000+0  38011-5 0  9991
2 43074  86.3972 318.1913 0002196  93.9622 266.1825 14.34217730445465
IRIDIUM 134             
1 43075U 17083F   26177.47517476  .00000145  00000+0  44730-4 0  9993
2 43075  86.3975 318.1836 0002128  93.9617 266.1822 14.34218485445434
IRIDIUM 137             
1 43076U 17083G   26177.62739851 -.00000014  00000+0 -11976-4 0  9997
2 43076  86.3975 318.2132 0002384 102.2542 257.8921 14.34217366445524
IRIDIUM 141             
1 43077U 17083H   26177.62105510  .00000039  00000+0  69100-5 0  9995
2 43077  86.3971 318.0457 0002207  91.3651 268.7798 14.34217825445525
IRIDIUM 153             
1 43078U 17083J   26177.57323406 -.00000001  00000+0 -72949-5 0  9992
2 43078  86.3965 286.5467 0002081  90.8488 269.2946 14.34217422446627
IRIDIUM 131             
1 43079U 17083K   26177.39906456  .00000018  00000+0 -66765-6 0  9992
2 43079  86.3974 318.3253 0002131  92.3023 267.8417 14.34217373445422
IRIDIUM 144             
1 43249U 18030A   26177.57957312  .00000183  00000+0  58425-4 0  9995
2 43249  86.3963 286.4726 0002172  97.8471 262.2971 14.34216744431487
IRIDIUM 149             
1 43250U 18030B   26177.58591943  .00000016  00000+0 -12459-5 0  9996
2 43250  86.3963 286.4369 0002289  93.7959 266.3498 14.34217673431501
IRIDIUM 157             
1 43251U 18030C   26177.32587284 -.00000009  00000+0 -10390-4 0  9996
2 43251  86.3964 286.5993 0002159  94.8355 265.3088 14.34217505431446
IRIDIUM 140             
1 43252U 18030D   26177.55420501  .00000197  00000+0  63363-4 0  9994
2 43252  86.3964 286.5162 0002149  95.2523 264.8918 14.34217654431537
IRIDIUM 145             
1 43253U 18030E   26177.54152005  .00000105  00000+0  30293-4 0  9990
2 43253  86.3962 286.4937 0002203 102.8897 257.2545 14.34218345431467
IRIDIUM 146             
1 43254U 18030F   26177.38295619  .00000081  00000+0  21946-4 0  9990
2 43254  86.3963 286.5722 0002253  97.9165 262.2287 14.34217840431456
IRIDIUM 148             
1 43255U 18030G   26177.70008594  .00000014  00000+0 -19123-5 0  9993
2 43255  86.3965 286.4832 0002216  96.0889 264.0559 14.34217690431536
IRIDIUM 142             
1 43256U 18030H   26177.73814142  .00000017  00000+0 -10771-5 0  9994
2 43256  86.3961 286.3557 0002274  99.5971 260.5482 14.34217737431505
IRIDIUM 150             
1 43257U 18030J   26177.70642777  .00000151  00000+0  46779-4 0  9999
2 43257  86.3967 286.4856 0002167  95.6224 264.5219 14.34218243431521
IRIDIUM 143             
1 43258U 18030K   26177.68740034  .00000237  00000+0  77458-4 0  9995
2 43258  86.3969 286.5864 0002218  98.1945 261.9503 14.34218322431456
IRIDIUM 161             
1 43478U 18047C   26177.73664623  .00000278  00000+0  76781-4 0  9995
2 43478  86.4485  84.4797 0002516  85.1732 274.9756 14.43277568426517
IRIDIUM 152             
1 43479U 18047D   26177.72988639  .00000229  00000+0  74777-4 0  9990
2 43479  86.3956  84.3426 0002312  82.6314 277.5145 14.34218251423859
IRIDIUM 147             
1 43480U 18047E   26177.73622970  .00000007  00000+0 -45029-5 0  9990
2 43480  86.3954  84.3453 0002025  87.1088 273.0339 14.34217575423852
IRIDIUM 110             
1 43481U 18047F   26177.74257301 -.00000006  00000+0 -93818-5 0  9993
2 43481  86.3957  84.4347 0002358  78.3054 281.8406 14.34217380423848
IRIDIUM 162             
1 43482U 18047G   26177.73034884  .00000288  00000+0  79563-4 0  9992
2 43482  86.4481  84.3722 0002280  83.8329 276.3131 14.43278923426508
IRIDIUM 160             
1 43569U 18061A   26177.61863994  .00000037  00000+0  63157-5 0  9998
2 43569  86.3955  52.8536 0002255  85.6244 274.5209 14.34217780414721
IRIDIUM 166             
1 43570U 18061B   26177.64400985 -.00000005  00000+0 -88691-5 0  9997
2 43570  86.3948  52.7930 0002028  88.1381 272.0048 14.34217455414756
IRIDIUM 158             
1 43571U 18061C   26177.61229686  .00000083  00000+0  22409-4 0  9990
2 43571  86.3950  52.8165 0002166  84.0710 276.0733 14.34217582414717
IRIDIUM 165             
1 43572U 18061D   26177.35859288  .00000124  00000+0  37139-4 0  9991
2 43572  86.3955  52.9691 0002143  89.5677 270.5765 14.34217632414704
IRIDIUM 155             
1 43573U 18061E   26177.39030598  .00000087  00000+0  24109-4 0  9992
2 43573  86.3951  52.8244 0002063  84.7452 275.3980 14.34218092414672
